HERMES-2                
1 63243U 25052AK  26068.92847372  .00009456  00000+0  34839-3 0  9999
2 63243  97.4004 324.4926 0006340  99.4160 260.7796 15.28021069 54859
STARLINK-33781          
1 63826U 25092Y   26067.65991243  .00029123  00000+0  10640-2 0  9992
2 63826  43.0014 178.6611 0001273 244.9991 115.0728 15.27570338 48502
